{"type": "FeatureCollection", "features": [ {"type": "Feature", "properties": {"norad_id": 32289, "name": "YAOGAN-3", "group": "resource", "lat": 78.8926919702445, "lon": -113.21640283857477, "alt_km": 590.2266066139, "timestamp": "2025-12-21T16:47:54.385376+00:00", "meta": {"OBJECT_NAME": "YAOGAN-3", "OBJECT_ID": "2007-055A", "EPOCH": "2025-12-21T13:08:13.718400", "MEAN_MOTION": 14.89894702, "ECCENTRICITY": 0.0001094, "INCLINATION": 97.8352, "RA_OF_ASC_NODE": 22.0929, "ARG_OF_PERICENTER": 74.3042, "MEAN_ANOMALY": 285.8296, "EPHEMERIS_TYPE": 0, "CLASSIFICATION_TYPE": "U", "NORAD_CAT_ID": 32289, "ELEMENT_SET_NO": 999, "REV_AT_EPOCH": 97940, "BSTAR": 0.00016538, "MEAN_MOTION_DOT": 1.535e-05, "MEAN_MOTION_DDOT": 0}, "tle": {"line1": "1 32289U 07055A   25355.54738100  .00001535  00000+0  16538-3 0  9998", "line2": "2 32289  97.8352  22.0929 0001094  74.3042 285.8296 14.89894702979409"}}, "geometry": {"type": "Point", "coordinates": [-113.21640283857477, 78.8926919702445]}}, {"type": "Feature", "properties": {"norad_id": 32376, "name": "COSMO-SKYMED 2", "group": "resource", "lat": 51.16062358016925, "lon": 6.794310986989065, "alt_km": 617.1746875776898, "timestamp": "2025-12-21T16:47:54.385387+00:00", "meta": {"OBJECT_NAME": "COSMO-SKYMED 2", "OBJECT_ID": "2007-059A", "EPOCH": "2025-12-21T12:58:55.612416", "MEAN_MOTION": 14.8215268, "ECCENTRICITY": 0.0001337, "INCLINATION": 97.8804, "RA_OF_ASC_NODE": 176.7322, "ARG_OF_PERICENTER": 82.9776, "MEAN_ANOMALY": 277.1589, "EPHEMERIS_TYPE": 0, "CLASSIFICATION_TYPE": "U", "NORAD_CAT_ID": 32376, "ELEMENT_SET_NO": 999, "REV_AT_EPOCH": 97568, "BSTAR": 6.042e-05, "MEAN_MOTION_DOT": 4.29e-06, "MEAN_MOTION_DDOT": 0}, "tle": {"line1": "1 32376U 07059A   25355.54092144  .00000429  00000+0  60420-4 0  9991", "line2": "2 32376  97.8804 176.7322 0001337  82.9776 277.1589 14.82152680975681"}}, "geometry": {"type": "Point", "coordinates": [6.794310986989065, 51.16062358016925]}}, {"type": "Feature", "properties": {"norad_id": 32382, "name": "RADARSAT-2", "group": "resource", "lat": -16.953441813894273, "lon": 177.52220830479166, "alt_km": 796.9659566863202, "timestamp": "2025-12-21T16:47:54.385401+00:00", "meta": {"OBJECT_NAME": "RADARSAT-2", "OBJECT_ID": "2007-061A", "EPOCH": "2025-12-21T12:31:17.028768", "MEAN_MOTION": 14.29984086, "ECCENTRICITY": 0.0001143, "INCLINATION": 98.579, "RA_OF_ASC_NODE": 359.9842, "ARG_OF_PERICENTER": 83.9203, "MEAN_ANOMALY": 276.2109, "EPHEMERIS_TYPE": 0, "CLASSIFICATION_TYPE": "U", "NORAD_CAT_ID": 32382, "ELEMENT_SET_NO": 999, "REV_AT_EPOCH": 94056, "BSTAR": 2.2632e-05, "MEAN_MOTION_DOT": 1.5e-07, "MEAN_MOTION_DDOT": 0}, "tle": {"line1": "1 32382U 07061A   25355.52172487  .00000015  00000+0  22632-4 0  9992", "line2": "2 32382  98.5790 359.9842 0001143  83.9203 276.2109 14.29984086940564"}}, "geometry": {"type": "Point", "coordinates": [177.52220830479166, -16.953441813894273]}}, {"type": "Feature", "properties": {"norad_id": 32783, "name": "CARTOSAT-2A", "group": "resource", "lat": 15.368038965208328, "lon": -132.59939219088747, "alt_km": 641.2292198474179, "timestamp": "2025-12-21T16:47:54.385413+00:00", "meta": {"OBJECT_NAME": "CARTOSAT-2A", "OBJECT_ID": "2008-021A", "EPOCH": "2025-12-21T11:11:09.525408", "MEAN_MOTION": 14.78948653, "ECCENTRICITY": 0.0011204, "INCLINATION": 97.7921, "RA_OF_ASC_NODE": 45.0172, "ARG_OF_PERICENTER": 336.3512, "MEAN_ANOMALY": 23.7183, "EPHEMERIS_TYPE": 0, "CLASSIFICATION_TYPE": "U", "NORAD_CAT_ID": 32783, "ELEMENT_SET_NO": 999, "REV_AT_EPOCH": 95253, "BSTAR": 1.1414e-05, "MEAN_MOTION_DOT": 3.4e-07, "MEAN_MOTION_DDOT": 0}, "tle": {"line1": "1 32783U 08021A   25355.46608247  .00000034  00000+0  11414-4 0  9992", "line2": "2 32783  97.7921  45.0172 0011204 336.3512  23.7183 14.78948653952533"}}, "geometry": {"type": "Point", "coordinates": [-132.59939219088747, 15.368038965208328]}}, {"type": "Feature", "properties": {"norad_id": 33320, "name": "HUANJING 1A (HJ-1A)", "group": "resource", "lat": 6.334686395833822, "lon": 164.4795577257649, "alt_km": 634.0376344389788, "timestamp": "2025-12-21T16:47:54.385424+00:00", "meta": {"OBJECT_NAME": "HUANJING 1A (HJ-1A)", "OBJECT_ID": "2008-041A", "EPOCH": "2025-12-21T12:46:53.056992", "MEAN_MOTION": 14.83419986, "ECCENTRICITY": 0.0019504, "INCLINATION": 97.6537, "RA_OF_ASC_NODE": 343.4638, "ARG_OF_PERICENTER": 6.6276, "MEAN_ANOMALY": 353.5192, "EPHEMERIS_TYPE": 0, "CLASSIFICATION_TYPE": "U", "NORAD_CAT_ID": 33320, "ELEMENT_SET_NO": 999, "REV_AT_EPOCH": 93206, "BSTAR": 0.00017555, "MEAN_MOTION_DOT": 1.394e-05, "MEAN_MOTION_DDOT": 0}, "tle": {"line1": "1 33320U 08041A   25355.53255853  .00001394  00000+0  17555-3 0  9992", "line2": "2 33320  97.6537 343.4638 0019504   6.6276 353.5192 14.83419986932068"}}, "geometry": {"type": "Point", "coordinates": [164.4795577257649, 6.334686395833822]}}, {"type": "Feature", "properties": {"norad_id": 33321, "name": "HUANJING 1B (HJ-1B)", "group": "resource", "lat": 15.514217740335564, "lon": -14.837545453250122, "alt_km": 598.483858044312, "timestamp": "2025-12-21T16:47:54.385435+00:00", "meta": {"OBJECT_NAME": "HUANJING 1B (HJ-1B)", "OBJECT_ID": "2008-041B", "EPOCH": "2025-12-21T13:29:22.014240", "MEAN_MOTION": 14.82843533, "ECCENTRICITY": 0.0038015, "INCLINATION": 97.6397, "RA_OF_ASC_NODE": 347.166, "ARG_OF_PERICENTER": 47.8528, "MEAN_ANOMALY": 312.5905, "EPHEMERIS_TYPE": 0, "CLASSIFICATION_TYPE": "U", "NORAD_CAT_ID": 33321, "ELEMENT_SET_NO": 999, "REV_AT_EPOCH": 93208, "BSTAR": 0.00014145, "MEAN_MOTION_DOT": 1.108e-05, "MEAN_MOTION_DDOT": 0}, "tle": {"line1": "1 33321U 08041B   25355.56206035  .00001108  00000+0  14145-3 0  9999", "line2": "2 33321  97.6397 347.1660 0038015  47.8528 312.5905 14.82843533932081"}}, "geometry": {"type": "Point", "coordinates": [-14.837545453250122, 15.514217740335564]}}, {"type": "Feature", "properties": {"norad_id": 33331, "name": "GEOEYE 1", "group": "resource", "lat": 39.87555068386886, "lon": -106.2788408296959, "alt_km": 675.4870879928167, "timestamp": "2025-12-21T16:47:54.385446+00:00", "meta": {"OBJECT_NAME": "GEOEYE 1", "OBJECT_ID": "2008-042A", "EPOCH": "2025-12-21T11:14:40.478784", "MEAN_MOTION": 14.64711172, "ECCENTRICITY": 0.0002849, "INCLINATION": 98.1242, "RA_OF_ASC_NODE": 66.639, "ARG_OF_PERICENTER": 246.7043, "MEAN_ANOMALY": 113.386, "EPHEMERIS_TYPE": 0, "CLASSIFICATION_TYPE": "U", "NORAD_CAT_ID": 33331, "ELEMENT_SET_NO": 999, "REV_AT_EPOCH": 92413, "BSTAR": 9.776e-05, "MEAN_MOTION_DOT": 4.73e-06, "MEAN_MOTION_DDOT": 0}, "tle": {"line1": "1 33331U 08042A   25355.46852406  .00000473  00000+0  97760-4 0  9998", "line2": "2 33331  98.1242  66.6390 0002849 246.7043 113.3860 14.64711172924135"}}, "geometry": {"type": "Point", "coordinates": [-106.2788408296959, 39.87555068386886]}}, {"type": "Feature", "properties": {"norad_id": 33396, "name": "THEOS", "group": "resource", "lat": -1.294603218421201, "lon": 53.720974738536064, "alt_km": 828.1765782680077, "timestamp": "2025-12-21T16:47:54.385457+00:00", "meta": {"OBJECT_NAME": "THEOS", "OBJECT_ID": "2008-049A", "EPOCH": "2025-12-21T11:43:53.950368", "MEAN_MOTION": 14.20099366, "ECCENTRICITY": 0.0001199, "INCLINATION": 98.586, "RA_OF_ASC_NODE": 53.3205, "ARG_OF_PERICENTER": 94.3648, "MEAN_ANOMALY": 265.7666, "EPHEMERIS_TYPE": 0, "CLASSIFICATION_TYPE": "U", "NORAD_CAT_ID": 33396, "ELEMENT_SET_NO": 999, "REV_AT_EPOCH": 89274, "BSTAR": 0.00018388, "MEAN_MOTION_DOT": 3.49e-06, "MEAN_MOTION_DDOT": 0}, "tle": {"line1": "1 33396U 08049A   25355.48881887  .00000349  00000+0  18388-3 0  9993", "line2": "2 33396  98.5860  53.3205 0001199  94.3648 265.7666 14.20099366892742"}}, "geometry": {"type": "Point", "coordinates": [53.720974738536064, -1.294603218421201]}}, {"type": "Feature", "properties": {"norad_id": 33412, "name": "COSMO-SKYMED 3", "group": "resource", "lat": -46.19441335131566, "lon": -145.49099607618476, "alt_km": 568.6787155635393, "timestamp": "2025-12-21T16:47:54.385468+00:00", "meta": {"OBJECT_NAME": "COSMO-SKYMED 3", "OBJECT_ID": "2008-054A", "EPOCH": "2025-12-21T13:48:57.602880", "MEAN_MOTION": 15.05425262, "ECCENTRICITY": 0.0017052, "INCLINATION": 97.8462, "RA_OF_ASC_NODE": 206.1165, "ARG_OF_PERICENTER": 142.6954, "MEAN_ANOMALY": 217.546, "EPHEMERIS_TYPE": 0, "CLASSIFICATION_TYPE": "U", "NORAD_CAT_ID": 33412, "ELEMENT_SET_NO": 999, "REV_AT_EPOCH": 93020, "BSTAR": 5.6652e-05, "MEAN_MOTION_DOT": 7.5e-06, "MEAN_MOTION_DDOT": 0}, "tle": {"line1": "1 33412U 08054A   25355.57566670  .00000750  00000+0  56652-4 0  9991", "line2": "2 33412  97.8462 206.1165 0017052 142.6954 217.5460 15.05425262930209"}}, "geometry": {"type": "Point", "coordinates": [-145.49099607618476, -46.19441335131566]}}, {"type": "Feature", "properties": {"norad_id": 33446, "name": "YAOGAN-4", "group": "resource", "lat": -74.50914782558097, "lon": -44.138849611384906, "alt_km": 619.0679333247808, "timestamp": "2025-12-21T16:47:54.385479+00:00", "meta": {"OBJECT_NAME": "YAOGAN-4", "OBJECT_ID": "2008-061A", "EPOCH": "2025-12-21T09:02:40.964064", "MEAN_MOTION": 14.8270568, "ECCENTRICITY": 0.0013066, "INCLINATION": 97.9195, "RA_OF_ASC_NODE": 285.3917, "ARG_OF_PERICENTER": 292.927, "MEAN_ANOMALY": 67.0564, "EPHEMERIS_TYPE": 0, "CLASSIFICATION_TYPE": "U", "NORAD_CAT_ID": 33446, "ELEMENT_SET_NO": 999, "REV_AT_EPOCH": 91931, "BSTAR": 0.00013803, "MEAN_MOTION_DOT": 1.061e-05, "MEAN_MOTION_DDOT": 0}, "tle": {"line1": "1 33446U 08061A   25355.37686301  .00001061  00000+0  13803-3 0  9994", "line2": "2 33446  97.9195 285.3917 0013066 292.9270  67.0564 14.82705680919316"}}, "geometry": {"type": "Point", "coordinates": [-44.138849611384906, -74.50914782558097]}}]}